COMMENT,ORIGINATOR,NORAD_CAT_ID,OBJECT_NAME,OBJECT_TYPE,CLASSIFICATION_TYPE,INTLDES,EPOCH,EPOCH_MICROSECONDS,MEAN_MOTION,ECCENTRICITY,INCLINATION,RA_OF_ASC_NODE,ARG_OF_PERICENTER,MEAN_ANOMALY,EPHEMERIS_TYPE,ELEMENT_SET_NO,REV_AT_EPOCH,BSTAR,MEAN_MOTION_DOT,MEAN_MOTION_DDOT,FILE,TLE_LINE0,TLE_LINE1,TLE_LINE2,OBJECT_ID,OBJECT_NUMBER,SEMIMAJOR_AXIS,PERIOD,APOGEE,PERIGEE,DECAYED
GENERATED VIA SPACETRACK.ORG API,18 SPCS,51976,STARLINK-3663,PAYLOAD,U,22025W,2022-08-22 22:00:00,999936,15.08835376,0.0001876,53.2185,91.5913,59.9705,82.0597,0,999,2670,-0.0001386,-2.493e-05,0.0,3544074,0 STARLINK-3663,1 51976U 22025W   22234.91667824 -.00002493  00000-0 -13860-3 0  9996,2 51976  53.2185  91.5913 0001876  59.9705  82.0597 15.08835376 26701,2022-025W,51976,6917.895,95.438,541.057,538.462,0
GENERATED VIA SPACETRACK.ORG API,18 SPCS,51976,STARLINK-3663,PAYLOAD,U,22025W,2022-08-22 22:00:00,999936,15.08835376,0.0001876,53.2185,91.5913,59.9705,82.0597,0,999,130,-0.0001386,-2.493e-05,0.0,3544179,0 STARLINK-3663,1 51976U 22025W   22234.91667824 -.00002493  00000-0 -13860-3 0  9996,2 51976  53.2185  91.5913 0001876  59.9705  82.0597 15.08835376  1300,2022-025W,51976,6917.895,95.438,541.057,538.462,0
GENERATED VIA SPACETRACK.ORG API,18 SPCS,51976,STARLINK-3663,PAYLOAD,U,22025W,2022-08-23 14:00:01,224,15.08839411,0.0001757,53.2187,88.597,68.1595,97.0544,0,999,130,0.0013051,0.00020543,0.0,3545070,0 STARLINK-3663,1 51976U 22025W   22235.58334491  .00020543  00000-0  13051-2 0  9996,2 51976  53.2187  88.5970 0001757  68.1595  97.0544 15.08839411  1300,2022-025W,51976,6917.882,95.438,540.963,538.532,0
GENERATED VIA SPACETRACK.ORG API,18 SPCS,51976,STARLINK-3663,PAYLOAD,U,22025W,2022-08-23 22:00:01,999584,15.08842094,0.000187,53.2185,87.1025,61.378,115.5038,0,999,2685,0.00018908,2.723e-05,0.0,3545442,0 STARLINK-3663,1 51976U 22025W   22235.91668981  .00002723  00000-0  18908-3 0  9994,2 51976  53.2185  87.1025 0001870  61.3780 115.5038 15.08842094 26853,2022-025W,51976,6917.874,95.437,541.033,538.445,0
GENERATED VIA SPACETRACK.ORG API,18 SPCS,51976,STARLINK-3663,PAYLOAD,U,22025W,2022-08-23 22:00:01,999584,15.08842094,0.000187,53.2185,87.1025,61.378,115.5038,0,999,130,0.00018908,2.723e-05,0.0,3545624,0 STARLINK-3663,1 51976U 22025W   22235.91668981  .00002723  00000-0  18908-3 0  9994,2 51976  53.2185  87.1025 0001870  61.3780 115.5038 15.08842094  1306,2022-025W,51976,6917.874,95.437,541.033,538.445,0
GENERATED VIA SPACETRACK.ORG API,18 SPCS,51976,STARLINK-3663,PAYLOAD,U,22025W,2022-08-24 14:00:01,224,15.08851863,0.0001738,53.2183,84.1082,70.3914,129.6317,0,999,130,0.00083119,0.00012969,0.0,3546350,0 STARLINK-3663,1 51976U 22025W   22236.58334491  .00012969  00000-0  83119-3 0  9993,2 51976  53.2183  84.1082 0001738  70.3914 129.6317 15.08851863  1306,2022-025W,51976,6917.844,95.437,540.911,538.507,0
GENERATED VIA SPACETRACK.ORG API,18 SPCS,51976,STARLINK-3663,PAYLOAD,U,22025W,2022-08-24 22:00:00,999936,15.08851738,0.0001799,53.218,82.6136,62.4244,149.2169,0,999,130,-0.0020544,-0.00032846,0.0,3546663,0 STARLINK-3663,1 51976U 22025W   22236.91667824 -.00032846  00000-0 -20544-2 0  9999,2 51976  53.2180  82.6136 0001799  62.4244 149.2169 15.08851738  1305,2022-025W,51976,6917.845,95.437,540.954,538.465,0
GENERATED VIA SPACETRACK.ORG API,18 SPCS,51976,STARLINK-3663,PAYLOAD,U,22025W,2022-08-25 06:00:02,160,15.08845057,0.000166,53.2176,81.116,64.4126,158.8838,0,999,2705,-0.0020737,-0.00033144,0.0,3546936,0 STARLINK-3663,1 51976U 22025W   22237.25002315 -.00033144  00000-0 -20737-2 0  9991,2 51976  53.2176  81.1160 0001660  64.4126 158.8838 15.08845057 27055,2022-025W,51976,6917.865,95.437,540.878,538.582,0
GENERATED VIA SPACETRACK.ORG API,18 SPCS,51976,STARLINK-3663,PAYLOAD,U,22025W,2022-08-25 14:00:01,224,15.08835283,0.0001658,53.2177,79.6193,71.3212,163.4955,0,999,130,0.00046465,7.114e-05,0.0,3547226,0 STARLINK-3663,1 51976U 22025W   22237.58334491  .00007114  00000-0  46465-3 0  9993,2 51976  53.2177  79.6193 0001658  71.3212 163.4955 15.08835283  1306,2022-025W,51976,6917.895,95.438,540.907,538.613,0
GENERATED VIA SPACETRACK.ORG API,18 SPCS,51976,STARLINK-3663,PAYLOAD,U,22025W,2022-08-25 22:00:00,999936,15.08822435,0.0001778,53.2174,78.1246,63.3059,183.1067,0,999,2715,0.0011112,0.00017433,0.0,3547613,0 STARLINK-3663,1 51976U 22025W   22237.91667824  .00017433  00000-0  11112-2 0  9994,2 51976  53.2174  78.1246 0001778  63.3059 183.1067 15.08822435 27158,2022-025W,51976,6917.934,95.439,541.029,538.569,0
GENERATED VIA SPACETRACK.ORG API,18 SPCS,51976,STARLINK-3663,PAYLOAD,U,22025W,2022-08-25 22:00:00,999936,15.08822435,0.0001778,53.2174,78.1246,63.3059,183.1067,0,999,130,0.0011112,0.00017433,0.0,3547674,0 STARLINK-3663,1 51976U 22025W   22237.91667824  .00017433  00000-0  11112-2 0  9994,2 51976  53.2174  78.1246 0001778  63.3059 183.1067 15.08822435  1307,2022-025W,51976,6917.934,95.439,541.029,538.569,0
GENERATED VIA SPACETRACK.ORG API,18 SPCS,51976,STARLINK-3663,PAYLOAD,U,22025W,2022-08-26 14:00:01,999872,15.08844958,0.0001699,53.2172,75.13,72.2398,197.4066,0,999,130,0.00016756,2.38e-05,0.0,3548418,0 STARLINK-3663,1 51976U 22025W   22238.58335648  .00002380  00000-0  16756-3 0  9999,2 51976  53.2172  75.1300 0001699  72.2398 197.4066 15.08844958  1301,2022-025W,51976,6917.865,95.437,540.906,538.555,0
GENERATED VIA SPACETRACK.ORG API,18 SPCS,51976,STARLINK-3663,PAYLOAD,U,22025W,2022-08-26 22:00:00,999936,15.08826577,0.0001815,53.2171,73.6354,64.0941,217.0945,0,999,2730,0.0015847,0.00025013,0.0,3548564,0 STARLINK-3663,1 51976U 22025W   22238.91667824  .00025013  00000-0  15847-2 0  9997,2 51976  53.2171  73.6354 0001815  64.0941 217.0945 15.08826577 27305,2022-025W,51976,6917.921,95.438,541.042,538.531,0
GENERATED VIA SPACETRACK.ORG API,18 SPCS,51976,STARLINK-3663,PAYLOAD,U,22025W,2022-08-26 22:00:00,999936,15.08826577,0.0001815,53.2171,73.6354,64.0941,217.0945,0,999,130,0.0015847,0.00025013,0.0,3548620,0 STARLINK-3663,1 51976U 22025W   22238.91667824  .00025013  00000-0  15847-2 0  9997,2 51976  53.2171  73.6354 0001815  64.0941 217.0945 15.08826577  1307,2022-025W,51976,6917.921,95.438,541.042,538.531,0
GENERATED VIA SPACETRACK.ORG API,18 SPCS,51976,STARLINK-3663,PAYLOAD,U,22025W,2022-08-27 14:00:01,224,15.08858519,0.0001727,53.2171,70.6406,71.667,232.7136,0,999,130,-0.00016316,-2.885e-05,0.0,3548622,0 STARLINK-3663,1 51976U 22025W   22239.58334491 -.00002885  00000-0 -16316-3 0  9999,2 51976  53.2171  70.6406 0001727  71.6670 232.7136 15.08858519  1304,2022-025W,51976,6917.824,95.436,540.883,538.494,0
GENERATED VIA SPACETRACK.ORG API,18 SPCS,51976,STARLINK-3663,PAYLOAD,U,22025W,2022-08-27 22:00:00,999936,15.08839872,0.0001793,53.2172,69.1458,62.9331,253.0685,0,999,2745,-0.00054501,-8.952e-05,0.0,3548869,0 STARLINK-3663,1 51976U 22025W   22239.91667824 -.00008952  00000-0 -54501-3 0  9994,2 51976  53.2172  69.1458 0001793  62.9331 253.0685 15.08839872 27455,2022-025W,51976,6917.881,95.438,540.986,538.505,0
GENERATED VIA SPACETRACK.ORG API,18 SPCS,51976,STARLINK-3663,PAYLOAD,U,22025W,2022-08-27 22:00:00,999936,15.08839872,0.0001793,53.2172,69.1458,62.9331,253.0685,0,999,130,-0.00054501,-8.952e-05,0.0,3548882,0 STARLINK-3663,1 51976U 22025W   22239.91667824 -.00008952  00000-0 -54501-3 0  9994,2 51976  53.2172  69.1458 0001793  62.9331 253.0685 15.08839872  1301,2022-025W,51976,6917.881,95.438,540.986,538.505,0
GENERATED VIA SPACETRACK.ORG API,18 SPCS,51976,STARLINK-3663,PAYLOAD,U,22025W,2022-08-28 14:00:01,224,15.08848265,0.0001676,53.2175,66.1512,69.4014,269.7751,0,999,130,-0.00024334,-4.16e-05,0.0,3549654,0 STARLINK-3663,1 51976U 22025W   22240.58334491 -.00004160  00000-0 -24334-3 0  9998,2 51976  53.2175  66.1512 0001676  69.4014 269.7751 15.08848265  1306,2022-025W,51976,6917.855,95.437,540.88,538.561,0
GENERATED VIA SPACETRACK.ORG API,18 SPCS,51976,STARLINK-3663,PAYLOAD,U,22025W,2022-08-28 22:00:00,999936,15.08826127,0.0001767,53.2177,64.6564,61.6834,289.0961,0,999,2760,0.0016151,0.000255,0.0,3549975,0 STARLINK-3663,1 51976U 22025W   22240.91667824  .00025500  00000-0  16151-2 0  9990,2 51976  53.2177  64.6564 0001767  61.6834 289.0961 15.08826127 27605,2022-025W,51976,6917.923,95.438,541.01,538.565,0
GENERATED VIA SPACETRACK.ORG API,18 SPCS,51976,STARLINK-3663,PAYLOAD,U,22025W,2022-08-28 22:00:00,999936,15.08826127,0.0001767,53.2177,64.6564,61.6834,289.0961,0,999,130,0.0016151,0.000255,0.0,3550014,0 STARLINK-3663,1 51976U 22025W   22240.91667824  .00025500  00000-0  16151-2 0  9990,2 51976  53.2177  64.6564 0001767  61.6834 289.0961 15.08826127  1304,2022-025W,51976,6917.923,95.438,541.01,538.565,0
GENERATED VIA SPACETRACK.ORG API,18 SPCS,51976,STARLINK-3663,PAYLOAD,U,22025W,2022-08-29 14:00:01,224,15.08832893,0.0001589,53.2182,61.662,67.3649,306.5788,0,999,130,-0.00075794,-0.00012328,0.0,3550737,0 STARLINK-3663,1 51976U 22025W   22241.58334491 -.00012328  00000-0 -75794-3 0  9990,2 51976  53.2182  61.6620 0001589  67.3649 306.5788 15.08832893  1308,2022-025W,51976,6917.902,95.438,540.866,538.668,0
GENERATED VIA SPACETRACK.ORG API,18 SPCS,51976,STARLINK-3663,PAYLOAD,U,22025W,2022-08-29 16:00:00,999936,15.08837656,0.0001632,53.2181,61.2884,65.0232,41.8147,0,999,2772,-0.0017341,-0.00027779,0.0,3550764,0 STARLINK-3663,1 51976U 22025W   22241.66667824 -.00027779  00000-0 -17341-2 0  9997,2 51976  53.2181  61.2884 0001632  65.0232  41.8147 15.08837656 27721,2022-025W,51976,6917.888,95.438,540.882,538.624,0
GENERATED VIA SPACETRACK.ORG API,18 SPCS,51976,STARLINK-3663,PAYLOAD,U,22025W,2022-08-29 22:00:00,999936,15.08803966,0.00017,53.2183,60.1672,60.0477,325.4822,0,999,130,0.0027136,0.00043121,0.0,3551093,0 STARLINK-3663,1 51976U 22025W   22241.91667824  .00043121  00000-0  27136-2 0  9995,2 51976  53.2183  60.1672 0001700  60.0477 325.4822 15.08803966  1302,2022-025W,51976,6917.991,95.44,541.032,538.679,0
